IRIDIUM 112             
1 41925U 17003J   24277.21696364 -.00000885  00000+0 -32318-3 0  9993
2 41925  86.4016 348.2313 0001856  86.4888 273.6520 14.34210658404157
IRIDIUM 111             
1 41926U 17003K   24277.20428398  .00000235  00000+0  76885-4 0  9998
2 41926  86.4020 348.2934 0001930  96.5622 263.5793 14.34217724404176
IRIDIUM 113             
1 42803U 17039A   24277.11445144  .00001936  00000+0  68414-3 0  9997
2 42803  86.4001 222.0690 0002051  82.8955 277.2474 14.34219470382027
IRIDIUM 123             
1 42804U 17039B   24276.66757993 -.00000046  00000+0 -23534-4 0  9993
2 42804  86.3927 253.7376 0002110  90.8094 269.3343 14.34218669380726
IRIDIUM 120             
1 42805U 17039C   24277.17790252  .00000156  00000+0  48677-4 0  9991
2 42805  86.3994 221.9054 0002307  83.8476 276.2982 14.34217335382025
IRIDIUM 115             
1 42806U 17039D   24277.15161699  .00002248  00000+0  66199-3 0  9999
2 42806  86.4526 221.9570 0001886  83.1735 276.9680 14.43291021384548
IRIDIUM 118             
1 42807U 17039E   24276.90859994 -.00000084  00000+0 -36954-4 0  9999
2 42807  86.3927 253.6373 0002245  87.0428 273.1025 14.34216431380751
IRIDIUM 117             
1 42808U 17039F   24277.20669869 -.00000189  00000+0 -74405-4 0  9993
2 42808  86.3927 253.4759 0001909  88.1988 271.9426 14.34216937380838
